[{"OBJECT_NAME":"CAPELLA-11 (ACADIA-1)","OBJECT_ID":"2023-126A","EPOCH":"2026-03-09T22:58:53.466528","MEAN_MOTION":14.80465178,"ECCENTRICITY":0.00027448,"INCLINATION":53.0065,"RA_OF_ASC_NODE":254.028,"ARG_OF_PERICENTER":128.81,"MEAN_ANOMALY":231.3123,"EPHEMERIS_TYPE":0,"CLASSIFICATION_TYPE":"U","NORAD_CAT_ID":57693,"ELEMENT_SET_NO":999,"REV_AT_EPOCH":13741,"BSTAR":0.00045921868,"MEAN_MOTION_DOT":3.323e-5,"MEAN_MOTION_DDOT":0},{"OBJECT_NAME":"ATLAS 5 CENTAUR R\/B","OBJECT_ID":"2007-027B","EPOCH":"2026-03-09T15:46:13.058976","MEAN_MOTION":14.51560256,"ECCENTRICITY":0.05000955,"INCLINATION":63.3111,"RA_OF_ASC_NODE":178.9158,"ARG_OF_PERICENTER":42.233,"MEAN_ANOMALY":321.6153,"EPHEMERIS_TYPE":0,"CLASSIFICATION_TYPE":"U","NORAD_CAT_ID":31702,"ELEMENT_SET_NO":999,"REV_AT_EPOCH":9634,"BSTAR":0.00064832626,"MEAN_MOTION_DOT":0.0001437,"MEAN_MOTION_DDOT":0}]
